{"type": "FeatureCollection", "features": [ {"type": "Feature", "properties": {"norad_id": 37562, "name": "IRIDIUM 33 DEB", "group": "iridium-33-debris", "lat": -86.00596475974696, "lon": -27.536699409783218, "alt_km": 728.3498782253537, "timestamp": "2025-12-26T03:50:12.479258+00:00", "meta": {"OBJECT_NAME": "IRIDIUM 33 DEB", "OBJECT_ID": "1997-051XX", "EPOCH": "2025-12-25T20:34:30.178272", "MEAN_MOTION": 14.56586789, "ECCENTRICITY": 0.0026236, "INCLINATION": 86.3732, "RA_OF_ASC_NODE": 37.8796, "ARG_OF_PERICENTER": 66.6095, "MEAN_ANOMALY": 59.6121, "EPHEMERIS_TYPE": 0, "CLASSIFICATION_TYPE": "U", "NORAD_CAT_ID": 37562, "ELEMENT_SET_NO": 999, "REV_AT_EPOCH": 86519, "BSTAR": 0.0010427, "MEAN_MOTION_DOT": 4.687e-05, "MEAN_MOTION_DDOT": 0}, "tle": {"line1": "1 37562U 97051XX  25359.85729373  .00004687  00000+0  10427-2 0  9993", "line2": "2 37562  86.3732  37.8796 0026236  66.6095  59.6121 14.56586789865197"}}, "geometry": {"type": "Point", "coordinates": [-27.536699409783218, -86.00596475974696]}}, {"type": "Feature", "properties": {"norad_id": 37565, "name": "IRIDIUM 33 DEB", "group": "iridium-33-debris", "lat": 7.8519038115448865, "lon": -176.7732921464655, "alt_km": 729.0726936928959, "timestamp": "2025-12-26T03:50:12.479268+00:00", "meta": {"OBJECT_NAME": "IRIDIUM 33 DEB", "OBJECT_ID": "1997-051YA", "EPOCH": "2025-12-22T08:03:11.421504", "MEAN_MOTION": 14.51554431, "ECCENTRICITY": 0.00147764, "INCLINATION": 86.3487, "RA_OF_ASC_NODE": 5.397, "ARG_OF_PERICENTER": 56.1153, "MEAN_ANOMALY": 304.1456, "EPHEMERIS_TYPE": 0, "CLASSIFICATION_TYPE": "U", "NORAD_CAT_ID": 37565, "ELEMENT_SET_NO": 999, "REV_AT_EPOCH": 65976, "BSTAR": 0.00051713633, "MEAN_MOTION_DOT": 2.092e-05, "MEAN_MOTION_DDOT": 0}, "tle": {"line1": "1 37565U 97051YA  25356.33554886  .00002092  00000+0  51714-3 0  9994", "line2": "2 37565  86.3487   5.3970 0014776  56.1153 304.1456 14.51554431659763"}}, "geometry": {"type": "Point", "coordinates": [-176.7732921464655, 7.8519038115448865]}}, {"type": "Feature", "properties": {"norad_id": 38017, "name": "IRIDIUM 33 DEB", "group": "iridium-33-debris", "lat": 30.31494339738183, "lon": -21.75206201793984, "alt_km": 727.0088052674528, "timestamp": "2025-12-26T03:50:12.479279+00:00", "meta": {"OBJECT_NAME": "IRIDIUM 33 DEB", "OBJECT_ID": "1997-051YD", "EPOCH": "2025-12-25T03:57:42.952608", "MEAN_MOTION": 14.49417684, "ECCENTRICITY": 0.0091171, "INCLINATION": 86.3404, "RA_OF_ASC_NODE": 160.8254, "ARG_OF_PERICENTER": 61.3725, "MEAN_ANOMALY": 299.6612, "EPHEMERIS_TYPE": 0, "CLASSIFICATION_TYPE": "U", "NORAD_CAT_ID": 38017, "ELEMENT_SET_NO": 999, "REV_AT_EPOCH": 61582, "BSTAR": 0.0046751, "MEAN_MOTION_DOT": 0.00018909, "MEAN_MOTION_DDOT": 0}, "tle": {"line1": "1 38017U 97051YD  25359.16508047  .00018909  00000+0  46751-2 0  9997", "line2": "2 38017  86.3404 160.8254 0091171  61.3725 299.6612 14.49417684615820"}}, "geometry": {"type": "Point", "coordinates": [-21.75206201793984, 30.31494339738183]}}, {"type": "Feature", "properties": {"norad_id": 38022, "name": "IRIDIUM 33 DEB", "group": "iridium-33-debris", "lat": -85.17277449667121, "lon": -118.82679140444385, "alt_km": 767.0491653061272, "timestamp": "2025-12-26T03:50:12.479289+00:00", "meta": {"OBJECT_NAME": "IRIDIUM 33 DEB", "OBJECT_ID": "1997-051YJ", "EPOCH": "2025-12-23T07:57:08.773056", "MEAN_MOTION": 14.41313849, "ECCENTRICITY": 0.00453843, "INCLINATION": 86.2683, "RA_OF_ASC_NODE": 11.8042, "ARG_OF_PERICENTER": 16.2864, "MEAN_ANOMALY": 343.9781, "EPHEMERIS_TYPE": 0, "CLASSIFICATION_TYPE": "U", "NORAD_CAT_ID": 38022, "ELEMENT_SET_NO": 999, "REV_AT_EPOCH": 69346, "BSTAR": 0.0010847612, "MEAN_MOTION_DOT": 3.57e-05, "MEAN_MOTION_DDOT": 0}, "tle": {"line1": "1 38022U 97051YJ  25357.33135154  .00003570  00000+0  10848-2 0  9991", "line2": "2 38022  86.2683  11.8042 0045384  16.2864 343.9781 14.41313849693468"}}, "geometry": {"type": "Point", "coordinates": [-118.82679140444385, -85.17277449667121]}}, {"type": "Feature", "properties": {"norad_id": 38028, "name": "IRIDIUM 33 DEB", "group": "iridium-33-debris", "lat": -72.55980434194939, "lon": -17.368824769712027, "alt_km": 764.4045122684865, "timestamp": "2025-12-26T03:50:12.479299+00:00", "meta": {"OBJECT_NAME": "IRIDIUM 33 DEB", "OBJECT_ID": "1997-051YQ", "EPOCH": "2025-12-19T17:44:22.316352", "MEAN_MOTION": 14.46188799, "ECCENTRICITY": 0.0030512, "INCLINATION": 86.3252, "RA_OF_ASC_NODE": 357.2262, "ARG_OF_PERICENTER": 99.065, "MEAN_ANOMALY": 261.4007, "EPHEMERIS_TYPE": 0, "CLASSIFICATION_TYPE": "U", "NORAD_CAT_ID": 38028, "ELEMENT_SET_NO": 999, "REV_AT_EPOCH": 65596, "BSTAR": 0.00016660929, "MEAN_MOTION_DOT": 6.2e-06, "MEAN_MOTION_DDOT": 0}, "tle": {"line1": "1 38028U 97051YQ  25353.73914718  .00000620  00000+0  16661-3 0  9991", "line2": "2 38028  86.3252 357.2262 0030512  99.0650 261.4007 14.46188799655964"}}, "geometry": {"type": "Point", "coordinates": [-17.368824769712027, -72.55980434194939]}}, {"type": "Feature", "properties": {"norad_id": 38228, "name": "IRIDIUM 33 DEB", "group": "iridium-33-debris", "lat": 28.176321022759726, "lon": 44.75372319837173, "alt_km": 821.3194319148433, "timestamp": "2025-12-26T03:50:12.479314+00:00", "meta": {"OBJECT_NAME": "IRIDIUM 33 DEB", "OBJECT_ID": "1997-051ZC", "EPOCH": "2025-12-20T22:20:09.818016", "MEAN_MOTION": 14.2727844, "ECCENTRICITY": 0.0065198, "INCLINATION": 86.2935, "RA_OF_ASC_NODE": 44.9869, "ARG_OF_PERICENTER": 163.0896, "MEAN_ANOMALY": 14.0405, "EPHEMERIS_TYPE": 0, "CLASSIFICATION_TYPE": "U", "NORAD_CAT_ID": 38228, "ELEMENT_SET_NO": 999, "REV_AT_EPOCH": 84898, "BSTAR": 0.00020665, "MEAN_MOTION_DOT": 5.36e-06, "MEAN_MOTION_DDOT": 0}, "tle": {"line1": "1 38228U 97051ZC  25354.93066919  .00000536  00000+0  20665-3 0  9992", "line2": "2 38228  86.2935  44.9869 0065198 163.0896  14.0405 14.27278440848980"}}, "geometry": {"type": "Point", "coordinates": [44.75372319837173, 28.176321022759726]}}, {"type": "Feature", "properties": {"norad_id": 38241, "name": "IRIDIUM 33 DEB", "group": "iridium-33-debris", "lat": -23.649391940169476, "lon": 166.29079689562147, "alt_km": 718.3951629040912, "timestamp": "2025-12-26T03:50:12.479338+00:00", "meta": {"OBJECT_NAME": "IRIDIUM 33 DEB", "OBJECT_ID": "1997-051ZR", "EPOCH": "2025-12-25T07:05:48.823008", "MEAN_MOTION": 14.54944281, "ECCENTRICITY": 0.0004906, "INCLINATION": 86.3239, "RA_OF_ASC_NODE": 345.0585, "ARG_OF_PERICENTER": 45.5545, "MEAN_ANOMALY": 314.6063, "EPHEMERIS_TYPE": 0, "CLASSIFICATION_TYPE": "U", "NORAD_CAT_ID": 38241, "ELEMENT_SET_NO": 999, "REV_AT_EPOCH": 60383, "BSTAR": 0.00082968, "MEAN_MOTION_DOT": 3.588e-05, "MEAN_MOTION_DDOT": 0}, "tle": {"line1": "1 38241U 97051ZR  25359.29570397  .00003588  00000+0  82968-3 0  9995", "line2": "2 38241  86.3239 345.0585 0004906  45.5545 314.6063 14.54944281603833"}}, "geometry": {"type": "Point", "coordinates": [166.29079689562147, -23.649391940169476]}}, {"type": "Feature", "properties": {"norad_id": 38474, "name": "IRIDIUM 33 DEB", "group": "iridium-33-debris", "lat": 45.04362038564416, "lon": -179.45708981887225, "alt_km": 719.3964520281124, "timestamp": "2025-12-26T03:50:12.479350+00:00", "meta": {"OBJECT_NAME": "IRIDIUM 33 DEB", "OBJECT_ID": "1997-051AAB", "EPOCH": "2025-12-21T07:20:31.212384", "MEAN_MOTION": 14.50718538, "ECCENTRICITY": 0.00276153, "INCLINATION": 86.3426, "RA_OF_ASC_NODE": 6.3307, "ARG_OF_PERICENTER": 61.1056, "MEAN_ANOMALY": 299.2914, "EPHEMERIS_TYPE": 0, "CLASSIFICATION_TYPE": "U", "NORAD_CAT_ID": 38474, "ELEMENT_SET_NO": 999, "REV_AT_EPOCH": 65442, "BSTAR": 0.00039085525, "MEAN_MOTION_DOT": 1.564e-05, "MEAN_MOTION_DDOT": 0}, "tle": {"line1": "1 38474U 97051AAB 25355.30591681  .00001564  00000+0  39086-3 0  9995", "line2": "2 38474  86.3426   6.3307 0027615  61.1056 299.2914 14.50718538654425"}}, "geometry": {"type": "Point", "coordinates": [-179.45708981887225, 45.04362038564416]}}, {"type": "Feature", "properties": {"norad_id": 39777, "name": "IRIDIUM 33 DEB", "group": "iridium-33-debris", "lat": 75.68776755592448, "lon": -27.538543278333716, "alt_km": 662.7179078620802, "timestamp": "2025-12-26T03:50:12.479360+00:00", "meta": {"OBJECT_NAME": "IRIDIUM 33 DEB", "OBJECT_ID": "1997-051AAJ", "EPOCH": "2025-12-24T21:41:15.335808", "MEAN_MOTION": 14.56705579, "ECCENTRICITY": 0.00605319, "INCLINATION": 85.9631, "RA_OF_ASC_NODE": 169.1412, "ARG_OF_PERICENTER": 145.8576, "MEAN_ANOMALY": 214.6549, "EPHEMERIS_TYPE": 0, "CLASSIFICATION_TYPE": "U", "NORAD_CAT_ID": 39777, "ELEMENT_SET_NO": 999, "REV_AT_EPOCH": 60362, "BSTAR": 0.0030691062, "MEAN_MOTION_DOT": 0.00014091, "MEAN_MOTION_DDOT": 0}, "tle": {"line1": "1 39777U 97051AAJ 25358.90364972  .00014091  00000+0  30691-2 0  9993", "line2": "2 39777  85.9631 169.1412 0060531 145.8576 214.6549 14.56705579603629"}}, "geometry": {"type": "Point", "coordinates": [-27.538543278333716, 75.68776755592448]}}, {"type": "Feature", "properties": {"norad_id": 39778, "name": "IRIDIUM 33 DEB", "group": "iridium-33-debris", "lat": -9.38305148442118, "lon": -142.00127433605275, "alt_km": 720.2302597772887, "timestamp": "2025-12-26T03:50:12.479371+00:00", "meta": {"OBJECT_NAME": "IRIDIUM 33 DEB", "OBJECT_ID": "1997-051AAK", "EPOCH": "2025-12-25T20:21:50.178816", "MEAN_MOTION": 14.54348903, "ECCENTRICITY": 0.0006511, "INCLINATION": 86.3769, "RA_OF_ASC_NODE": 37.534, "ARG_OF_PERICENTER": 359.9142, "MEAN_ANOMALY": 0.2063, "EPHEMERIS_TYPE": 0, "CLASSIFICATION_TYPE": "U", "NORAD_CAT_ID": 39778, "ELEMENT_SET_NO": 999, "REV_AT_EPOCH": 60883, "BSTAR": 0.00084027, "MEAN_MOTION_DOT": 3.588e-05, "MEAN_MOTION_DDOT": 0}, "tle": {"line1": "1 39778U 97051AAK 25359.84849744  .00003588  00000+0  84027-3 0  9995", "line2": "2 39778  86.3769  37.5340 0006511 359.9142   0.2063 14.54348903608830"}}, "geometry": {"type": "Point", "coordinates": [-142.00127433605275, -9.38305148442118]}}]}